OBJECT_NAME,OBJECT_ID,EPOCH,MEAN_MOTION,ECCENTRICITY,INCLINATION,RA_OF_ASC_NODE,ARG_OF_PERICENTER,MEAN_ANOMALY,EPHEMERIS_TYPE,CLASSIFICATION_TYPE,NORAD_CAT_ID,ELEMENT_SET_NO,REV_AT_EPOCH,BSTAR,MEAN_MOTION_DOT,MEAN_MOTION_DDOT
IONOSFERA-M 2,2024-199B,2026-06-06T14:36:48.129696,14.22755577,.00014533,98.7185,30.8029,48.3563,311.7739,0,U,61736,999,12932,.43962164E-4,.55E-6,0
PRSC-EO1,2025-012A,2026-06-05T18:50:56.296320,15.17617532,.00043082,97.4223,229.4677,306.3423,53.7413,0,U,62725,999,7646,.23021059E-3,.4564E-4,0
BIOMASS,2025-090A,2026-06-06T12:48:07.271136,14.67533840,.00014325,98.0741,345.0051,89.3524,270.7845,0,U,63772,999,5912,.1594332E-3,.856E-5,0
GOSAT-GW (IBUKI GW),2025-141A,2026-06-06T14:55:42.325824,14.67552911,.0001422,98.0572,95.1109,83.9924,276.1443,0,U,64694,999,5029,.15816791E-3,.849E-5,0
IONOSFERA-M 3,2025-155A,2026-06-06T14:48:38.678112,14.21484657,.00003774,98.6026,119.7886,181.8649,178.2527,0,U,64876,999,4490,.52239468E-4,.71E-6,0
IONOSFERA-M 4,2025-155B,2026-06-06T15:38:50.431776,14.21486849,.00006961,98.6019,119.7400,114.0169,246.1081,0,U,64877,999,4490,.51059007E-4,.69E-6,0
MICROCARB,2025-156A,2026-06-06T11:31:01.232832,14.72314846,.00152104,97.9831,234.8082,309.6025,50.3839,0,U,64899,999,4639,.10291029E-3,.602E-5,0
CO3D 3,2025-156B,2026-06-06T12:35:03.079680,15.20202505,.00010317,97.4322,236.3708,139.1854,220.9459,0,U,64900,999,4791,.25793905E-3,.552E-4,0
CO3D 4,2025-156C,2026-06-06T12:35:16.151136,15.20223657,.00008467,97.4325,236.3708,36.6886,323.4407,0,U,64901,999,4791,.25541142E-3,.5469E-4,0
CO3D 2,2025-156D,2026-06-06T13:22:02.197632,15.20189031,.00013511,97.4324,236.3021,115.0430,245.0946,0,U,64902,999,4791,.21285589E-3,.4541E-4,0
CO3D 1,2025-156E,2026-06-06T13:22:15.680352,15.20199033,.00011262,97.4323,236.3025,116.9829,243.1522,0,U,64903,999,4791,.27140863E-3,.5812E-4,0
PRSC-S1,2025-164A,2026-06-06T14:09:17.398944,15.06359640,.00076245,41.1315,347.4924,281.7615,78.2344,0,U,65055,999,4683,.41996062E-3,.6121E-4,0
SENTINEL-6B,2025-264A,2026-06-06T09:20:46.604256,12.80929664,.0008063,66.0384,157.6057,269.3799,90.6292,0,U,66514,999,2578,.50808292E-4,-.49E-6,0
CAS500-3,2025-274F,2026-06-06T09:22:55.500960,14.88295553,.00061623,97.7446,85.6877,138.7291,221.4392,0,U,66655,999,2854,.16291092E-3,.1453E-4,0
CSG-3,2026-001A,2026-06-06T11:09:22.044672,14.82161770,.00013296,97.8887,341.2223,95.2716,264.8649,0,U,67304,999,2287,.53024722E-4,.37E-5,0
PRSC-E03,2026-092A,2026-06-06T10:50:03.417216,15.06617871,.00052478,37.9994,152.9855,291.4997,68.5205,0,U,68835,999,633,.17655477E-3,.2558E-4,0
CAS500-2,2026-100AK,2026-06-06T03:53:27.649248,15.20457448,.00115346,97.4079,55.2081,68.9977,291.2491,0,U,69013,999,513,.38712629E-3,.8399E-4,0
