IONOSFERA-M 2           
1 61736U 24199B   26157.60889039  .00000055  00000+0  43962-4 0  9999
2 61736  98.7185  30.8029 0001453  48.3563 311.7739 14.22755577129320
PRSC-EO1                
1 62725U 25012A   26156.78537380  .00004564  00000+0  23021-3 0  9992
2 62725  97.4223 229.4677 0004308 306.3423  53.7413 15.17617532 76468
BIOMASS                 
1 63772U 25090A   26157.53341749  .00000856  00000+0  15943-3 0  9991
2 63772  98.0741 345.0051 0001432  89.3524 270.7845 14.67533840 59126
GOSAT-GW (IBUKI GW)     
1 64694U 25141A   26157.62201766  .00000849  00000+0  15817-3 0  9998
2 64694  98.0572  95.1109 0001422  83.9924 276.1443 14.67552911 50295
IONOSFERA-M 3           
1 64876U 25155A   26157.61711433  .00000071  00000+0  52239-4 0  9998
2 64876  98.6026 119.7886 0000377 181.8649 178.2527 14.21484657 44909
IONOSFERA-M 4           
1 64877U 25155B   26157.65197259  .00000069  00000+0  51059-4 0  9993
2 64877  98.6019 119.7400 0000696 114.0169 246.1081 14.21486849 44908
MICROCARB               
1 64899U 25156A   26157.47987538  .00000602  00000+0  10291-3 0  9990
2 64899  97.9831 234.8082 0015210 309.6025  50.3839 14.72314846 46396
CO3D 3                  
1 64900U 25156B   26157.52434120  .00005520  00000+0  25794-3 0  9991
2 64900  97.4322 236.3708 0001031 139.1854 220.9459 15.20202505 47917
CO3D 4                  
1 64901U 25156C   26157.52449249  .00005469  00000+0  25541-3 0  9992
2 64901  97.4325 236.3708 0000846  36.6886 323.4407 15.20223657 47913
CO3D 2                  
1 64902U 25156D   26157.55696988  .00004541  00000+0  21286-3 0  9992
2 64902  97.4324 236.3021 0001351 115.0430 245.0946 15.20189031 47914
CO3D 1                  
1 64903U 25156E   26157.55712593  .00005812  00000+0  27141-3 0  9992
2 64903  97.4323 236.3025 0001126 116.9829 243.1522 15.20199033 47912
PRSC-S1                 
1 65055U 25164A   26157.58978471  .00006121  00000+0  41996-3 0  9990
2 65055  41.1315 347.4924 0007624 281.7615  78.2344 15.06359640 46838
SENTINEL-6B             
1 66514U 25264A   26157.38942829 -.00000049  00000+0  50808-4 0  9995
2 66514  66.0384 157.6057 0008063 269.3799  90.6292 12.80929664 25781
CAS500-3                
1 66655U 25274F   26157.39092015  .00001453  00000+0  16291-3 0  9992
2 66655  97.7446  85.6877 0006162 138.7291 221.4392 14.88295553 28546
CSG-3                   
1 67304U 26001A   26157.46483848  .00000370  00000+0  53025-4 0  9993
2 67304  97.8887 341.2223 0001329  95.2716 264.8649 14.82161770 22876
PRSC-E03                
1 68835U 26092A   26157.45142844  .00002558  00000+0  17655-3 0  9998
2 68835  37.9994 152.9855 0005247 291.4997  68.5205 15.06617871  6337
CAS500-2                
1 69013U 26100AK  26157.16212557  .00008399  00000+0  38713-3 0  9991
2 69013  97.4079  55.2081 0011534  68.9977 291.2491 15.20457448  5135
